{"fetched_at":"2026-07-18T17:30:02.751Z","source":"https://celestrak.org/NORAD/elements/gp.php?NAME=KINEIS&FORMAT=JSON","constellation":"kineis","records":[{"OBJECT_NAME":"KINEIS-1B","OBJECT_ID":"2024-114A","EPOCH":"2026-07-18T08:11:09.611808","CLASSIFICATION_TYPE":"U","MEAN_MOTION":14.80669393,"ECCENTRICITY":0.00027206,"INCLINATION":97.9828,"RA_OF_ASC_NODE":223.3778,"ARG_OF_PERICENTER":31.3185,"MEAN_ANOMALY":328.8188,"EPHEMERIS_TYPE":0,"NORAD_CAT_ID":60079,"ELEMENT_SET_NO":999,"REV_AT_EPOCH":11201,"BSTAR":0.000046080235,"MEAN_MOTION_DOT":0.00000301,"MEAN_MOTION_DDOT":0},{"OBJECT_NAME":"KINEIS-1C","OBJECT_ID":"2024-114C","EPOCH":"2026-07-18T07:22:16.547808","CLASSIFICATION_TYPE":"U","MEAN_MOTION":14.80671238,"ECCENTRICITY":0.00025732,"INCLINATION":97.9842,"RA_OF_ASC_NODE":223.2001,"ARG_OF_PERICENTER":90.9579,"MEAN_ANOMALY":269.1928,"EPHEMERIS_TYPE":0,"NORAD_CAT_ID":60081,"ELEMENT_SET_NO":999,"REV_AT_EPOCH":11198,"BSTAR":0.000047173077,"MEAN_MOTION_DOT":0.0000031,"MEAN_MOTION_DDOT":0},{"OBJECT_NAME":"KINEIS-1D","OBJECT_ID":"2024-114D","EPOCH":"2026-07-18T06:55:39.595872","CLASSIFICATION_TYPE":"U","MEAN_MOTION":14.76364678,"ECCENTRICITY":0.00029775,"INCLINATION":97.9879,"RA_OF_ASC_NODE":219.0853,"ARG_OF_PERICENTER":93.7393,"MEAN_ANOMALY":266.4157,"EPHEMERIS_TYPE":0,"NORAD_CAT_ID":60082,"ELEMENT_SET_NO":999,"REV_AT_EPOCH":11171,"BSTAR":0.000045597642,"MEAN_MOTION_DOT":0.00000266,"MEAN_MOTION_DDOT":0},{"OBJECT_NAME":"KINEIS-1E","OBJECT_ID":"2024-114E","EPOCH":"2026-07-18T07:47:52.205856","CLASSIFICATION_TYPE":"U","MEAN_MOTION":14.80696827,"ECCENTRICITY":0.00041976,"INCLINATION":97.8944,"RA_OF_ASC_NODE":222.2524,"ARG_OF_PERICENTER":103.2712,"MEAN_ANOMALY":256.8969,"EPHEMERIS_TYPE":0,"NORAD_CAT_ID":60083,"ELEMENT_SET_NO":999,"REV_AT_EPOCH":11199,"BSTAR":0.000052564574,"MEAN_MOTION_DOT":0.00000352,"MEAN_MOTION_DDOT":0},{"OBJECT_NAME":"KINEIS-1A","OBJECT_ID":"2024-114F","EPOCH":"2026-07-18T05:21:26.172576","CLASSIFICATION_TYPE":"U","MEAN_MOTION":14.80684711,"ECCENTRICITY":0.00052426,"INCLINATION":97.8918,"RA_OF_ASC_NODE":222.245,"ARG_OF_PERICENTER":55.1712,"MEAN_ANOMALY":304.9993,"EPHEMERIS_TYPE":0,"NORAD_CAT_ID":60084,"ELEMENT_SET_NO":999,"REV_AT_EPOCH":11198,"BSTAR":0.000048164876,"MEAN_MOTION_DOT":0.00000318,"MEAN_MOTION_DDOT":0},{"OBJECT_NAME":"KINEIS-3C","OBJECT_ID":"2024-172A","EPOCH":"2026-07-18T04:46:34.235904","CLASSIFICATION_TYPE":"U","MEAN_MOTION":14.72295187,"ECCENTRICITY":0.00025856,"INCLINATION":98.0434,"RA_OF_ASC_NODE":288.7692,"ARG_OF_PERICENTER":78.0483,"MEAN_ANOMALY":282.1014,"EPHEMERIS_TYPE":0,"NORAD_CAT_ID":61220,"ELEMENT_SET_NO":999,"REV_AT_EPOCH":9763,"BSTAR":0.0001406266,"MEAN_MOTION_DOT":0.00000839,"MEAN_MOTION_DDOT":0},{"OBJECT_NAME":"KINEIS-3D","OBJECT_ID":"2024-172B","EPOCH":"2026-07-18T04:36:53.440416","CLASSIFICATION_TYPE":"U","MEAN_MOTION":14.72291982,"ECCENTRICITY":0.00023799,"INCLINATION":98.0429,"RA_OF_ASC_NODE":288.7728,"ARG_OF_PERICENTER":78.5198,"MEAN_ANOMALY":281.6276,"EPHEMERIS_TYPE":0,"NORAD_CAT_ID":61221,"ELEMENT_SET_NO":999,"REV_AT_EPOCH":9791,"BSTAR":0.00008299037,"MEAN_MOTION_DOT":0.00000475,"MEAN_MOTION_DDOT":0},{"OBJECT_NAME":"KINEIS-3E","OBJECT_ID":"2024-172C","EPOCH":"2026-07-18T05:50:11.180544","CLASSIFICATION_TYPE":"U","MEAN_MOTION":14.7228181,"ECCENTRICITY":0.00017005,"INCLINATION":98.0429,"RA_OF_ASC_NODE":288.8042,"ARG_OF_PERICENTER":87.2075,"MEAN_ANOMALY":272.9327,"EPHEMERIS_TYPE":0,"NORAD_CAT_ID":61222,"ELEMENT_SET_NO":999,"REV_AT_EPOCH":9792,"BSTAR":0.00013649526,"MEAN_MOTION_DOT":0.00000813,"MEAN_MOTION_DDOT":0},{"OBJECT_NAME":"KINEIS-3A","OBJECT_ID":"2024-172D","EPOCH":"2026-07-18T05:26:15.282528","CLASSIFICATION_TYPE":"U","MEAN_MOTION":14.7231506,"ECCENTRICITY":0.00019728,"INCLINATION":98.0425,"RA_OF_ASC_NODE":288.8859,"ARG_OF_PERICENTER":35.8517,"MEAN_ANOMALY":324.2823,"EPHEMERIS_TYPE":0,"NORAD_CAT_ID":61223,"ELEMENT_SET_NO":999,"REV_AT_EPOCH":9734,"BSTAR":0.00013573279,"MEAN_MOTION_DOT":0.00000808,"MEAN_MOTION_DDOT":0},{"OBJECT_NAME":"KINEIS-3B","OBJECT_ID":"2024-172E","EPOCH":"2026-07-18T05:01:16.660704","CLASSIFICATION_TYPE":"U","MEAN_MOTION":14.72301222,"ECCENTRICITY":0.00013842,"INCLINATION":98.0419,"RA_OF_ASC_NODE":288.8908,"ARG_OF_PERICENTER":21.2132,"MEAN_ANOMALY":338.9133,"EPHEMERIS_TYPE":0,"NORAD_CAT_ID":61224,"ELEMENT_SET_NO":999,"REV_AT_EPOCH":9791,"BSTAR":0.00013536929,"MEAN_MOTION_DOT":0.00000806,"MEAN_MOTION_DDOT":0},{"OBJECT_NAME":"KINEIS-5C","OBJECT_ID":"2024-219A","EPOCH":"2026-07-18T06:06:16.880256","CLASSIFICATION_TYPE":"U","MEAN_MOTION":14.72316737,"ECCENTRICITY":0.00043977,"INCLINATION":97.9071,"RA_OF_ASC_NODE":357.2487,"ARG_OF_PERICENTER":164.2741,"MEAN_ANOMALY":195.8604,"EPHEMERIS_TYPE":0,"NORAD_CAT_ID":62081,"ELEMENT_SET_NO":999,"REV_AT_EPOCH":8832,"BSTAR":0.00005261484,"MEAN_MOTION_DOT":0.00000284,"MEAN_MOTION_DDOT":0},{"OBJECT_NAME":"KINEIS-5D","OBJECT_ID":"2024-219B","EPOCH":"2026-07-18T06:43:55.416864","CLASSIFICATION_TYPE":"U","MEAN_MOTION":14.72496475,"ECCENTRICITY":0.00055234,"INCLINATION":97.9183,"RA_OF_ASC_NODE":357.347,"ARG_OF_PERICENTER":158.7346,"MEAN_ANOMALY":201.4092,"EPHEMERIS_TYPE":0,"NORAD_CAT_ID":62082,"ELEMENT_SET_NO":999,"REV_AT_EPOCH":8833,"BSTAR":0.000072835258,"MEAN_MOTION_DOT":0.00000414,"MEAN_MOTION_DDOT":0},{"OBJECT_NAME":"KINEIS-5E","OBJECT_ID":"2024-219C","EPOCH":"2026-07-18T07:10:11.003808","CLASSIFICATION_TYPE":"U","MEAN_MOTION":14.72301224,"ECCENTRICITY":0.00069941,"INCLINATION":97.9028,"RA_OF_ASC_NODE":357.3844,"ARG_OF_PERICENTER":155.4514,"MEAN_ANOMALY":204.7028,"EPHEMERIS_TYPE":0,"NORAD_CAT_ID":62083,"ELEMENT_SET_NO":999,"REV_AT_EPOCH":8834,"BSTAR":0.000049816168,"MEAN_MOTION_DOT":0.00000267,"MEAN_MOTION_DDOT":0},{"OBJECT_NAME":"KINEIS-5A","OBJECT_ID":"2024-219D","EPOCH":"2026-07-18T06:38:54.070944","CLASSIFICATION_TYPE":"U","MEAN_MOTION":14.72272816,"ECCENTRICITY":0.00040094,"INCLINATION":97.897,"RA_OF_ASC_NODE":357.641,"ARG_OF_PERICENTER":189.8843,"MEAN_ANOMALY":170.2286,"EPHEMERIS_TYPE":0,"NORAD_CAT_ID":62084,"ELEMENT_SET_NO":999,"REV_AT_EPOCH":8834,"BSTAR":0.000060709322,"MEAN_MOTION_DOT":0.00000335,"MEAN_MOTION_DDOT":0},{"OBJECT_NAME":"KINEIS-5B","OBJECT_ID":"2024-219E","EPOCH":"2026-07-18T07:37:00.207264","CLASSIFICATION_TYPE":"U","MEAN_MOTION":14.78388928,"ECCENTRICITY":0.00026757,"INCLINATION":98.0093,"RA_OF_ASC_NODE":2.9763,"ARG_OF_PERICENTER":139.2717,"MEAN_ANOMALY":220.8694,"EPHEMERIS_TYPE":0,"NORAD_CAT_ID":62085,"ELEMENT_SET_NO":999,"REV_AT_EPOCH":8860,"BSTAR":0.000073631912,"MEAN_MOTION_DOT":0.00000484,"MEAN_MOTION_DDOT":0},{"OBJECT_NAME":"KINEIS-2C","OBJECT_ID":"2025-028B","EPOCH":"2026-07-18T03:39:30.072960","CLASSIFICATION_TYPE":"U","MEAN_MOTION":14.73433829,"ECCENTRICITY":0.00044576,"INCLINATION":98.1228,"RA_OF_ASC_NODE":253.5788,"ARG_OF_PERICENTER":151.7332,"MEAN_ANOMALY":208.4118,"EPHEMERIS_TYPE":0,"NORAD_CAT_ID":62929,"ELEMENT_SET_NO":999,"REV_AT_EPOCH":7717,"BSTAR":0.0001164642,"MEAN_MOTION_DOT":0.00000704,"MEAN_MOTION_DDOT":0}]}
