KINEIS-1B               
1 60079U 24114A   26199.34108347  .00000301  00000+0  46080-4 0  9996
2 60079  97.9828 223.3778 0002720  31.3185 328.8188 14.80669393112013
KINEIS-1C               
1 60081U 24114C   26199.30713597  .00000310  00000+0  47173-4 0  9998
2 60081  97.9842 223.2001 0002573  90.9579 269.1928 14.80671238111989
KINEIS-1D               
1 60082U 24114D   26199.28865273  .00000266  00000+0  45598-4 0  9994
2 60082  97.9879 219.0853 0002977  93.7393 266.4157 14.76364678111718
KINEIS-1E               
1 60083U 24114E   26199.32490979  .00000352  00000+0  52565-4 0  9995
2 60083  97.8944 222.2524 0004197 103.2712 256.8969 14.80696827111993
KINEIS-1A               
1 60084U 24114F   26199.22321959  .00000318  00000+0  48165-4 0  9999
2 60084  97.8918 222.2450 0005242  55.1712 304.9993 14.80684711111980
KINEIS-3C               
1 61220U 24172A   26199.19900736  .00000839  00000+0  14063-3 0  9995
2 61220  98.0434 288.7692 0002585  78.0483 282.1014 14.72295187 97632
KINEIS-3D               
1 61221U 24172B   26199.19228519  .00000475  00000+0  82990-4 0  9999
2 61221  98.0429 288.7728 0002379  78.5198 281.6276 14.72291982 97910
KINEIS-3E               
1 61222U 24172C   26199.24318496  .00000813  00000+0  13650-3 0  9992
2 61222  98.0429 288.8042 0001700  87.2075 272.9327 14.72281810 97929
KINEIS-3A               
1 61223U 24172D   26199.22656577  .00000808  00000+0  13573-3 0  9994
2 61223  98.0425 288.8859 0001972  35.8517 324.2823 14.72315060 97346
KINEIS-3B               
1 61224U 24172E   26199.20922061  .00000806  00000+0  13537-3 0  9995
2 61224  98.0419 288.8908 0001384  21.2132 338.9133 14.72301222 97918
KINEIS-5C               
1 62081U 24219A   26199.25436204  .00000284  00000+0  52615-4 0  9994
2 62081  97.9071 357.2487 0004397 164.2741 195.8604 14.72316737 88321
KINEIS-5D               
1 62082U 24219B   26199.28050251  .00000414  00000+0  72835-4 0  9993
2 62082  97.9183 357.3470 0005523 158.7346 201.4092 14.72496475 88334
KINEIS-5E               
1 62083U 24219C   26199.29873847  .00000267  00000+0  49816-4 0  9998
2 62083  97.9028 357.3844 0006994 155.4514 204.7028 14.72301224 88345
KINEIS-5A               
1 62084U 24219D   26199.27701471  .00000335  00000+0  60709-4 0  9990
2 62084  97.8970 357.6410 0004009 189.8843 170.2286 14.72272816 88341
KINEIS-5B               
1 62085U 24219E   26199.31736351  .00000484  00000+0  73632-4 0  9995
2 62085  98.0093   2.9763 0002675 139.2717 220.8694 14.78388928 88600
KINEIS-2C               
1 62929U 25028B   26199.15243140  .00000704  00000+0  11646-3 0  9993
2 62929  98.1228 253.5788 0004457 151.7332 208.4118 14.73433829 77170
